[{"code":"1135BRD","number":"213","name":"1135 BROADWAY","site":"MAIN CAMP","address":"1135 BROADWAY","city":"BOULDER","state":"CO","zip":"80302","category":"CLASSROOM/ADMINISTRATION"},{"code":"1221PENN","number":"803","name":"1221 PENNSYLVANIA AVENUE","site":"OFF CAMPUS","address":"1221 PENNSYLVANIA AVENUE","city":"BOULDER","state":"CO","zip":"80302","category":"CLASSROOM/ADMINISTRATION"},{"code":"1301WA","number":"801","name":"1301 WALNUT ST","site":"OFF CAMPUS","address":"1301 WALNUT ST","city":"BOULDER","state":"CO","zip":"80302","category":"CLASSROOM/ADMINISTRATION"},{"code":"1320GVA","number":"","name":"1320 Grandview Ave","site":"OFF CAMPUS","address":"1320 GRANDVIEW AVE","city":"BOULDER","state":"CO","zip":"80302","category":"OTHER"},{"code":"190926","number":"802","name":"1909 26TH ST","site":"OFF CAMPUS","address":"1909 26TH ST","city":"BOULDER","state":"CO","zip":"80302","category":"CLASSROOM/ADMINISTRATION"},{"code":"3800ARP","number":"577","name":"3800 ARAPAHOE AVENUE (BANK OF THE WEST)","site":"OFF CAMPUS","address":"3800 ARAPAHOE AVENUE","city":"BOULDER","state":"CO","zip":"80303","category":"CLASSROOM/ADMINISTRATION"},{"code":"PRL3","number":"96","name":"4845 PEARL EAST CIRCLE","site":"OFF CAMPUS","address":"4845 PEARL EAST CIR.","city":"BOULDER","state":"CO","zip":"80301","category":"CLASSROOM/ADMINISTRATION"},{"code":"5425AIR","number":"804","name":"5425 AIRPORT ROAD","site":"OFF CAMPUS","address":"5425 AIRPORT ROAD","city":"BOULDER","state":"CO","zip":"80301","category":"OTHER"},{"code":"IBS1","number":"","name":"A & S FINANCE & PAYROLL ADMI","site":"OFF CAMPUS","address":"","city":"","state":"","zip":"","category":"OTHER"},{"code":"ACAD","number":"15","name":"ACADEMY BLDG","site":"OFF CAMPUS","address":"970 AURORA AVENUE","city":"BOULDER","state":"CO","zip":"80302","category":"RESIDENTIAL"},{"code":"ADEN","number":"339","name":"ADEN HALL","site":"MAIN CAMP","address":"2320 LIBBY DR","city":"BOULDER","state":"CO","zip":"80309","category":"RESIDENTIAL"},{"code":"ARCEA","number":"568A","name":"ADMIN & RSCH CTR MECHANICAL BLDG","site":"EAST CAMP","address":"3100 MARINE ST","city":"BOULDER","state":"CO","zip":"80303","category":"OTHER"},{"code":"ARCE","number":"568","name":"ADMIN & RSCH CTR-EAST CAMPUS","site":"EAST CAMP","address":"3100 MARINE ST","city":"BOULDER","state":"CO","zip":"80303","category":"CLASSROOM/ADMINISTRATION"},{"code":"AERO","number":"587","name":"AEROSPACE ENGINEERING SCIENCES","site":"EAST CAMP","address":"3775 DISCOVERY DRIVE","city":"BOULDER","state":"CO","zip":"80309","category":"RESEARCH/LABORATORY"},{"code":"AERO TENT","number":"T17","name":"AEROSPACE SE CORNER TENT","site":"EAST CAMP","address":"3775 DISCOVERY DRIVE","city":"BOULDER","state":"CO","zip":"80309","category":"STUDY TENT"},{"code":"TB92","number":"","name":"AFFIRMATIVE ACTION","site":"OFF CAMPUS","address":"","city":"","state":"","zip":"","category":"OTHER"},{"code":"AFROTC","number":"","name":"AIRFORCE ROTC","site":"MAIN CAMP","address":"","city":"","state":"","zip":"","category":"OTHER"},{"code":"ALMG","number":"249A","name":"ALUMNI CTR GARAGE ANNEX","site":"MAIN CAMP","address":"1202 UNIVERSITY AVE","city":"BOULDER","state":"CO","zip":"80309","category":"HISTORIC BUILDING"},{"code":"ANDS","number":"410","name":"ANDREWS HALL","site":"MAIN CAMP","address":"2510 KITTREDGE LOOP RD","city":"BOULDER","state":"CO","zip":"80309","category":"RESIDENTIAL"},{"code":"ARMR","number":"265","name":"ARMORY","site":"GRANDVIEW","address":"1511 UNIVERSITY AVE","city":"BOULDER","state":"CO","zip":"80309","category":"CLASSROOM/ADMINISTRATION"},{"code":"TB44","number":"","name":"ARMORY ANNEX","site":"GRANDVIEW","address":"","city":"","state":"","zip":"","category":"OTHER"},{"code":"ARMT","number":"269","name":"ARMORY TRAILER","site":"GRANDVIEW","address":"1511 UNIVERSITY AVE","city":"BOULDER","state":"CO","zip":"80309","category":"CLASSROOM/ADMINISTRATION"},{"code":"ARMYROTC","number":"","name":"ARMY ROTC","site":"MAIN CAMP","address":"","city":"","state":"","zip":"","category":"OTHER"},{"code":"ARNT","number":"412","name":"ARNETT HALL","site":"MAIN CAMP","address":"2590 KITTREDGE LOOP RD","city":"BOULDER","state":"CO","zip":"80309","category":"RESIDENTIAL"},{"code":"FPA","number":"254","name":"ARTS & SCI FIN & PAYROLL ADMIN","site":"GRANDVIEW","address":"1416 BROADWAY","city":"BOULDER","state":"CO","zip":"80302","category":"CLASSROOM/ADMINISTRATION"},{"code":"OB1","number":"267","name":"ARTS & SCIENCES OFFICE BLDG 1","site":"GRANDVIEW","address":"1201 17TH ST","city":"BOULDER","state":"CO","zip":"80302","category":"CLASSROOM/ADMINISTRATION"},{"code":"ARL","number":"553","name":"ASTROPHYSICAL RESEARCH LABORATORY","site":"EAST CAMP","address":"1255 38TH ST","city":"BOULDER","state":"CO","zip":"80303","category":"RESEARCH/LABORATORY"},{"code":"ATCT","number":"","name":"ATHENS COURT","site":"OFF CAMPUS","address":"","city":"","state":"","zip":"","category":"OTHER"},{"code":"ATHN","number":"131","name":"ATHENS NORTH COURT","site":"N BLDR CRK","address":"1855 ATHENS ST","city":"BOULDER","state":"CO","zip":"80309","category":"RESIDENTIAL"},{"code":"PFPS","number":"","name":"ATHLETICS PRACTICE FIELD","site":"MAIN CAMP","address":"","city":"","state":"","zip":"","category":"OTHER"},{"code":"ATLS","number":"231","name":"ATLAS CTR","site":"MAIN CAMP","address":"1125 18TH ST","city":"BOULDER","state":"CO","zip":"80309","category":"CLASSROOM/ADMINISTRATION"},{"code":"LS18","number":"","name":"BAC, LEASED SPACE","site":"OFF CAMPUS","address":"","city":"","state":"","zip":"","category":"OTHER"},{"code":"BKER","number":"346","name":"BAKER HALL","site":"MAIN CAMP","address":"2005 BAKER DR","city":"BOULDER","state":"CO","zip":"80309","category":"RESIDENTIAL"},{"code":"TB75","number":"","name":"BAKER HALL ANCILLARY BLDG","site":"MAIN CAMP","address":"","city":"","state":"","zip":"","category":"OTHER"},{"code":"FH","number":"387","name":"BALCH FIELDHOUSE COMPLEX","site":"MAIN CAMP","address":"1995 COLORADO AVE","city":"BOULDER","state":"CO","zip":"80309","category":"SPECIAL/GENERAL USE (RETAIL,FOOD,ATHLETIC,STU"},{"code":"FHPB","number":"387E","name":"BALCH FIELDHOUSE PRESSBOX","site":"MAIN CAMP","address":"2005 COLORADO AVE","city":"BOULDER","state":"CO","zip":"80309","category":"SPECIAL/GENERAL USE (RETAIL,FOOD,ATHLETIC,STU"},{"code":"WEB","number":"630A","name":"Bear Creek A - WEBER HALL","site":"WILL VILL","address":"3275 APACHE DR","city":"BOULDER","state":"CO","zip":"80309","category":"RESIDENTIAL"},{"code":"BCAPB","number":"630B","name":"BEAR CREEK B","site":"WILL VILL","address":"3355 APACHE DR","city":"BOULDER","state":"CO","zip":"80309","category":"RESIDENTIAL"},{"code":"BESC","number":"363","name":"BENSON EARTH SCIENCES BLDG","site":"MAIN CAMP","address":"2200 COLORADO AVE","city":"BOULDER","state":"CO","zip":"80309","category":"RESEARCH/LABORATORY"},{"code":"BESC TENT 3","number":"T06","name":"BENSON/LOT 360 NORTHEAST TENT","site":"MAIN CAMP","address":"2200 COLORADO AVE","city":"BOULDER","state":"CO","zip":"80309","category":"STUDY TENT"},{"code":"BESC TENT 2","number":"T05","name":"BENSON/LOT 360 NORTHWEST TENT","site":"MAIN CAMP","address":"2200 COLORADO AVE","city":"BOULDER","state":"CO","zip":"80309","category":"STUDY TENT"},{"code":"BESC TENT 1","number":"T04","name":"BENSON/LOT 360 SOUTHEAST TENT","site":"MAIN CAMP","address":"2200 COLORADO AVE","city":"BOULDER","state":"CO","zip":"80309","category":"STUDY TENT"},{"code":"BESC TENT 4","number":"T07","name":"BENSON/LOT 360 SOUTHWEST TENT","site":"MAIN CAMP","address":"2200 COLORADO AVE","city":"BOULDER","state":"CO","zip":"80309","category":"STUDY TENT"},{"code":"BIOT","number":"530","name":"BIOTECH BLDG - JENNIE SMOLY CARUTHERS ","site":"EAST CAMP","address":"3415 COLORADO AVE","city":"BOULDER","state":"CO","zip":"80303","category":"RESEARCH/LABORATORY"},{"code":"BIOT TENT 1","number":"T15","name":"BIOTECH EAST CTYD TENT","site":"EAST CAMP","address":"3415 COLORADO AVE","city":"BOULDER","state":"CO","zip":"80303","category":"STUDY TENT"},{"code":"BIOT TENT 2","number":"T16","name":"BIOTECH WEST LAWN TENT","site":"EAST CAMP","address":"3415 COLORADO AVE","city":"BOULDER","state":"CO","zip":"80303","category":"STUDY TENT"},{"code":"UCB","number":"","name":"BOULDER CAMPUS LOCATION","site":"MAIN CAMP","address":"","city":"","state":"","zip":"","category":"OTHER"},{"code":"BRKT","number":"350","name":"BRACKETT HALL","site":"MAIN CAMP","address":"2350 LIBBY DR","city":"BOULDER","state":"CO","zip":"80309","category":"RESIDENTIAL"},{"code":"MCOL","number":"211","name":"BRUCE CURTIS BLDG - MUSEUM COLLECTIONS","site":"MAIN CAMP","address":"1440 CENTRAL CAMPUS MALL","city":"BOULDER","state":"CO","zip":"80309","category":"CLASSROOM/ADMINISTRATION"},{"code":"BUCK","number":"411","name":"BUCKINGHAM HALL","site":"MAIN CAMP","address":"2605 KITTREDGE LOOP RD","city":"BOULDER","state":"CO","zip":"80309","category":"RESIDENTIAL"},{"code":"BUFF PLAZA TENT","number":"T11","name":"BUFF PLAZA/STADIUM TENT","site":"MAIN CAMP","address":"2400 COLORADO AVE","city":"BOULDER","state":"CO","zip":"80305","category":"STUDY TENT"},{"code":"BUS","number":"","name":"BUSINESS BLDG","site":"MAIN CAMP","address":"","city":"","state":"","zip":"","category":"OTHER"},{"code":"BUSF","number":"","name":"BUSINESS FIELD - W-BF","site":"MAIN CAMP","address":"","city":"","state":"","zip":"","category":"OTHER"},{"code":"C4C TENT","number":"T01","name":"C4C EAST PLAZA TENT","site":"MAIN CAMP","address":"2249 WILLARD LOOP DR","city":"BOULDER","state":"CO","zip":"80309","category":"SPECIAL/GENERAL USE (RETAIL,FOOD,ATHLETIC,STU"},{"code":"CARL","number":"386","name":"CARLSON GYMNASIUM","site":"MAIN CAMP","address":"1900 PLEASANT ST","city":"BOULDER","state":"CO","zip":"80309","category":"SPECIAL/GENERAL USE (RETAIL,FOOD,ATHLETIC,STU"},{"code":"CASA","number":"","name":"CASA -CTR FOR ASTROPHSYS & SPACE AST","site":"EAST CAMP","address":"","city":"","state":"","zip":"","category":"OTHER"},{"code":"CASE","number":"209","name":"CASE - CTR FOR ACD SUCCESS ENGAGEMENT","site":"MAIN CAMP","address":"1725 EUCLID AVE","city":"BOULDER","state":"CO","zip":"80309","category":"CLASSROOM/ADMINISTRATION"},{"code":"LS16","number":"","name":"CE/ITP GLOBAL TRAIN'G PRG","site":"OFF CAMPUS","address":"","city":"","state":"","zip":"","category":"OTHER"},{"code":"CHMP","number":"388","name":"CHAMPIONS CTR","site":"MAIN CAMP","address":"2150 STADIUM DR","city":"BOULDER","state":"CO","zip":"80309","category":"SPECIAL/GENERAL USE (RETAIL,FOOD,ATHLETIC,STU"},{"code":"CHST","number":"391A","name":"CHEMICAL STORAGE BLDG","site":"MAIN CAMP","address":"1060 REGENT DRIVE","city":"BOULDER","state":"CO","zip":"80309","category":"OTHER"},{"code":"CHEY","number":"326","name":"CHEYENNE ARAPAHO HALL","site":"MAIN CAMP","address":"960 GREEN MTN ST","city":"BOULDER","state":"CO","zip":"80309","category":"RESIDENTIAL"},{"code":"DACR","number":"","name":"CHILDREN'S CTR","site":"OFF CAMPUS","address":"","city":"","state":"","zip":"","category":"OTHER"},{"code":"CIRE","number":"225","name":"CIRES - COOP INST FOR RES IN ENV SCI","site":"MAIN CAMP","address":"1665 CENTRAL CAMPUS MALL","city":"BOULDER","state":"CO","zip":"80309","category":"RESEARCH/LABORATORY"},{"code":"CLRE","number":"382","name":"CLARE SMALL ARTS & SCI BLDG","site":"MAIN CAMP","address":"1725 PLEASANT ST","city":"BOULDER","state":"CO","zip":"80309","category":"CLASSROOM/ADMINISTRATION"},{"code":"INFO","number":"210","name":"CMCI DEPT OF INFO SCIENCE","site":"MAIN CAMP","address":"1045 18TH ST","city":"BOULDER","state":"CO","zip":"80309","category":"CLASSROOM/ADMINISTRATION"},{"code":"CKRL","number":"340","name":"COCKERELL HALL","site":"MAIN CAMP","address":"2370 LIBBY DR","city":"BOULDER","state":"CO","zip":"80309","category":"RESIDENTIAL"},{"code":"COMP","number":"579","name":"COMPUTING CTR","site":"EAST CAMP","address":"3645 MARINE ST","city":"BOULDER","state":"CO","zip":"80303","category":"CLASSROOM/ADMINISTRATION"},{"code":"INEN","number":"","name":"CONT ED INT'L ENG CTR TB03","site":"OFF CAMPUS","address":"","city":"","state":"","zip":"","category":"OTHER"},{"code":"CONT","number":"","name":"CONT EDUC CTR-TEMP BL 94","site":"OFF CAMPUS","address":"","city":"","state":"","zip":"","category":"OTHER"},{"code":"CEDU","number":"261","name":"CONT EDUCATION CTR","site":"GRANDVIEW","address":"1505 UNIVERSITY AVE","city":"BOULDER","state":"CO","zip":"80302","category":"CLASSROOM/ADMINISTRATION"},{"code":"CHEM","number":"224","name":"CRISTOL CHEM & BIOCHEM BLDG","site":"MAIN CAMP","address":"1606 CENTRAL CAMPUS MALL","city":"BOULDER","state":"CO","zip":"80309","category":"RESEARCH/LABORATORY"},{"code":"CROS","number":"338","name":"CROSMAN HALL","site":"MAIN CAMP","address":"1015 COCKERELL DR","city":"BOULDER","state":"CO","zip":"80309","category":"RESIDENTIAL"},{"code":"CAS","number":"256","name":"CTR FOR ASIAN STUDIES","site":"GRANDVIEW","address":"1424 BROADWAY","city":"BOULDER","state":"CO","zip":"80302","category":"CLASSROOM/ADMINISTRATION"},{"code":"C4C","number":"302","name":"CTR FOR COMMUNITY","site":"MAIN CAMP","address":"2249 WILLARD LOOP DR","city":"BOULDER","state":"CO","zip":"80309","category":"SPECIAL/GENERAL USE (RETAIL,FOOD,ATHLETIC,STU"},{"code":"CINC","number":"585","name":"CTR FOR INNOVATION&CREATIVITY","site":"EASTCAMPN","address":"1777 EXPOSITION DR","city":"BOULDER","state":"CO","zip":"80303","category":"CLASSROOM/ADMINISTRATION"},{"code":"CINCP","number":"585A","name":"CTR FOR INNOVATION&CREATIVITY PAVILION","site":"EASTCAMPN","address":"1777 EXPOSITION DR","city":"BOULDER","state":"CO","zip":"80303","category":"CLASSROOM/ADMINISTRATION"},{"code":"GVAS","number":"","name":"CTR NATIVE AMERICAN & INDIGENOUS STUDIES (CNAIS)","site":"GRANDVIEW","address":"1330/1332 GRANDVIEW AVE","city":"BOULDER","state":"CO","zip":"80302","category":"CLASSROOM/ADMINISTRATION"},{"code":"EVNT","number":"420","name":"CU EVENTS/CONFERENCE CTR","site":"MAIN CAMP","address":"950 REGENT DR","city":"BOULDER","state":"CO","zip":"80309","category":"SPECIAL/GENERAL USE (RETAIL,FOOD,ATHLETIC,STU"},{"code":"LS20","number":"","name":"CU INTERLOCKEN CTR","site":"OFF CAMPUS","address":"","city":"","state":"","zip":"","category":"OTHER"},{"code":"DALW","number":"389","name":"DAL WARD ATHLETIC CTR","site":"MAIN CAMP","address":"2100 STADIUM DR","city":"BOULDER","state":"CO","zip":"80309","category":"SPECIAL/GENERAL USE (RETAIL,FOOD,ATHLETIC,STU"},{"code":"W-TF","number":"","name":"DALTON TRUMBO FOUNTAIN CT","site":"OFF CAMPUS","address":"","city":"","state":"","zip":"","category":"OTHER"},{"code":"DLYC","number":"","name":"DARLEY COMMONS, WILL VILL","site":"WILL VILL","address":"","city":"","state":"","zip":"","category":"OTHER"},{"code":"DRLN","number":"606N","name":"DARLEY TOWERS NORTH","site":"WILL VILL","address":"500 30TH ST","city":"BOULDER","state":"CO","zip":"80309","category":"RESIDENTIAL"},{"code":"DRLS","number":"606S","name":"DARLEY TOWERS SOUTH","site":"WILL VILL","address":"500 30TH ST","city":"BOULDER","state":"CO","zip":"80309","category":"RESIDENTIAL"},{"code":"DLYT","number":"","name":"DARLEY TOWERS, WILL VILL","site":"WILL VILL","address":"","city":"","state":"","zip":"","category":"OTHER"},{"code":"DSRC","number":"","name":"DAVID SKAGGS RESEARCH CENTER","site":"OFF CAMPUS","address":"325 Broadway","city":"BOULDER","state":"CO","zip":"80305","category":"OTHER"},{"code":"DEN","number":"207","name":"DENISON ARTS & SCI BLDG","site":"MAIN CAMP","address":"1080 BROADWAY","city":"BOULDER","state":"CO","zip":"80309","category":"CLASSROOM/ADMINISTRATION"},{"code":"DLC","number":"447","name":"DISCOVERY LEARNING CTR","site":"MAIN CAMP","address":"1095 REGENT DR","city":"BOULDER","state":"CO","zip":"80309","category":"RESEARCH/LABORATORY"},{"code":"DIST","number":"","name":"DIST CTR","site":"OFF CAMPUS","address":"","city":"","state":"","zip":"","category":"OTHER"},{"code":"WALN","number":"","name":"DIST CTR - WALN","site":"EASTCAMPN","address":"3300 WALNUT ST","city":"BOULDER","state":"CO","zip":"80303","category":"OTHER"},{"code":"ITLL","number":"445","name":"DRESCHER UNDERGRAD ENGINEERING - ITLL","site":"MAIN CAMP","address":"1045 REGENT DR","city":"BOULDER","state":"CO","zip":"80309","category":"RESEARCH/LABORATORY"},{"code":"DDW","number":"357","name":"DUANE D-WING","site":"MAIN CAMP","address":"1950 COLORADO AVE","city":"BOULDER","state":"CO","zip":"80309","category":"CLASSROOM/ADMINISTRATION"},{"code":"DUAN","number":"359","name":"DUANE PHY & ASTRO, GAMOW TWR","site":"MAIN CAMP","address":"2000 COLORADO AVE","city":"BOULDER","state":"CO","zip":"80309","category":"RESEARCH/LABORATORY"},{"code":"ECPDC","number":"540","name":"EAST CAMPUS POWER DIST CTR","site":"EAST CAMP","address":"1360 33RD ST","city":"BOULDER","state":"CO","zip":"80303","category":"OTHER"},{"code":"EDEP","number":"427","name":"EAST DISTRICT ENERGY PLANT","site":"MAIN CAMP","address":"980 REGENT DR","city":"BOULDER","state":"CO","zip":"80309","category":"OTHER"},{"code":"HUMN","number":"241E","name":"EATON HUMANITIES BLDG","site":"MAIN CAMP","address":"1610 PLEASANT ST","city":"BOULDER","state":"CO","zip":"80309","category":"CLASSROOM/ADMINISTRATION"},{"code":"LS23","number":"","name":"EC JCEM LAB, LEASED SPACE","site":"OFF CAMPUS","address":"","city":"","state":"","zip":"","category":"OTHER"},{"code":"ECON","number":"215","name":"ECONOMICS BLDG","site":"MAIN CAMP","address":"1445 CENTRAL CAMPUS MALL","city":"BOULDER","state":"CO","zip":"80309","category":"CLASSROOM/ADMINISTRATION"},{"code":"ECIN","number":"","name":"ECONOMICS INSTITUTE","site":"OFF CAMPUS","address":"","city":"","state":"","zip":"","category":"OTHER"},{"code":"EDUC","number":"217","name":"EDUCATION BLDG","site":"MAIN CAMP","address":"1500 CENTRAL CAMPUS MALL","city":"BOULDER","state":"CO","zip":"80309","category":"CLASSROOM/ADMINISTRATION"},{"code":"EKLC","number":"226","name":"EKELEY SCIENCES BLDG","site":"MAIN CAMP","address":"1601 CENTRAL CAMPUS MALL","city":"BOULDER","state":"CO","zip":"80309","category":"HISTORIC BUILDING"},{"code":"TB15","number":"569","name":"ELECTRIC SUPPLY BLDG","site":"EAST CAMP","address":"3210 MARINE ST","city":"BOULDER","state":"CO","zip":"80303","category":"OTHER"},{"code":"EC","number":"","name":"ENGINEERING CTR","site":"MAIN CAMP","address":"","city":"","state":"","zip":"","category":"OTHER"},{"code":"ECAE","number":"","name":"ENGR CTR - AEROSPACE ENGR WING","site":"MAIN CAMP","address":"","city":"","state":"","zip":"","category":"OTHER"},{"code":"ECCH","number":"","name":"ENGR CTR - CHEMICAL ENGR WING","site":"MAIN CAMP","address":"","city":"","state":"","zip":"","category":"OTHER"},{"code":"ECCE","number":"436","name":"ENGR CTR - CIVIL ENGR WING","site":"MAIN CAMP","address":"1111 ENGINEERING DR","city":"BOULDER","state":"CO","zip":"80309","category":"RESEARCH/LABORATORY"},{"code":"ENGR TENT 3","number":"T21","name":"ENGR CTR - CTYD EAST TENT","site":"MAIN CAMP","address":"1111 ENGINEERING DR","city":"BOULDER","state":"CO","zip":"80309","category":"STUDY TENT"},{"code":"ENGR TENT 1","number":"T19","name":"ENGR CTR - CTYD SOUTH TENT","site":"MAIN CAMP","address":"1111 ENGINEERING DR","city":"BOULDER","state":"CO","zip":"80309","category":"STUDY TENT"},{"code":"ENGR TENT 2","number":"T20","name":"ENGR CTR - CTYD WEST TENT","site":"MAIN CAMP","address":"1111 ENGINEERING DR","city":"BOULDER","state":"CO","zip":"80309","category":"STUDY TENT"},{"code":"ECSL","number":"435","name":"ENGR CTR - EGNR STORES & LABS","site":"MAIN CAMP","address":"1111 ENGINEERING DR","city":"BOULDER","state":"CO","zip":"80309","category":"RESEARCH/LABORATORY"},{"code":"ECEE","number":"444","name":"ENGR CTR - ELECTRICAL ENGR WING","site":"MAIN CAMP","address":"1111 ENGINEERING DR","city":"BOULDER","state":"CO","zip":"80309","category":"RESEARCH/LABORATORY"},{"code":"ECAD","number":"438","name":"ENGR CTR - ENGR ADMIN WING","site":"MAIN CAMP","address":"1111 ENGINEERING DR","city":"BOULDER","state":"CO","zip":"80309","category":"CLASSROOM/ADMINISTRATION"},{"code":"ECCR","number":"432","name":"ENGR CTR - ENGR CLRM WING","site":"MAIN CAMP","address":"1111 ENGINEERING DR","city":"BOULDER","state":"CO","zip":"80309","category":"CLASSROOM/ADMINISTRATION"},{"code":"ECCS","number":"432S","name":"ENGR CTR - ENGR COMP SCI DEPT","site":"MAIN CAMP","address":"1111 ENGINEERING DR","city":"BOULDER","state":"CO","zip":"80309","category":"RESEARCH/LABORATORY"},{"code":"ECNT","number":"441","name":"ENGR CTR - ENGR NORTH TOWER","site":"MAIN CAMP","address":"1111 ENGINEERING DR","city":"BOULDER","state":"CO","zip":"80309","category":"RESEARCH/LABORATORY"},{"code":"ECNW","number":"442","name":"ENGR CTR - ENGR NORTH WING","site":"MAIN CAMP","address":"1111 ENGINEERING DR","city":"BOULDER","state":"CO","zip":"80309","category":"RESEARCH/LABORATORY"},{"code":"ECOT","number":"439","name":"ENGR CTR - ENGR OFFICE TOWER","site":"MAIN CAMP","address":"1111 ENGINEERING DR","city":"BOULDER","state":"CO","zip":"80309","category":"CLASSROOM/ADMINISTRATION"},{"code":"ECST","number":"433","name":"ENGR CTR - ENGR SOUTH TOWER","site":"MAIN CAMP","address":"1111 ENGINEERING DR","city":"BOULDER","state":"CO","zip":"80309","category":"RESEARCH/LABORATORY"},{"code":"ECES","number":"434","name":"ENGR CTR - ENVIRON SUSTAINABILITY WING","site":"MAIN CAMP","address":"1111 ENGINEERING DR","city":"BOULDER","state":"CO","zip":"80309","category":"RESEARCH/LABORATORY"},{"code":"ECME","number":"440","name":"ENGR CTR - MECH ENGR WING","site":"MAIN CAMP","address":"1111 ENGINEERING DR","city":"BOULDER","state":"CO","zip":"80309","category":"RESEARCH/LABORATORY"},{"code":"ENVD","number":"344","name":"ENVIRON DESIGN BLDG","site":"MAIN CAMP","address":"1060 18TH ST","city":"BOULDER","state":"CO","zip":"80309","category":"CLASSROOM/ADMINISTRATION"},{"code":"EHSC","number":"458","name":"ENVIRON HEALTH & SAFETY CTR","site":"MAIN CAMP","address":"1000 REGENT DR","city":"BOULDER","state":"CO","zip":"80309","category":"OTHER"},{"code":"EPRK","number":"","name":"EUCLID AUTO PARK","site":"MAIN CAMP","address":"","city":"","state":"","zip":"","category":"OTHER"},{"code":"FACT1","number":"","name":"FACULTY-STAFF COURT HOUSING","site":"OFF CAMPUS","address":"","city":"","state":"","zip":"","category":"OTHER"},{"code":"TB32","number":"","name":"FAM HOUSING EXP - TB32","site":"N BLDR CRK","address":"","city":"","state":"","zip":"","category":"OTHER"},{"code":"TB33","number":"133","name":"FAM HOUSING EXP - TB33","site":"N BLDR CRK","address":"1328 17TH ST","city":"BOULDER","state":"CO","zip":"80309","category":"RESIDENTIAL"},{"code":"TB34","number":"141","name":"FAM HOUSING EXP - TB34","site":"N BLDR CRK","address":"1320/1322 19TH ST","city":"BOULDER","state":"CO","zip":"80309","category":"RESIDENTIAL"},{"code":"TB35","number":"145","name":"FAM HOUSING EXP - TB35","site":"N BLDR CRK","address":"1324/1326 19TH ST","city":"BOULDER","state":"CO","zip":"80309","category":"RESIDENTIAL"},{"code":"TB87","number":"134","name":"FAM HOUSING EXP - TB87","site":"N BLDR CRK","address":"1834 MARINE ST","city":"BOULDER","state":"CO","zip":"80309","category":"RESIDENTIAL"},{"code":"TB68","number":"143","name":"FAMILY HOUSING COMMUNITY CTR","site":"N BLDR CRK","address":"1330 19TH ST","city":"BOULDER","state":"CO","zip":"80309","category":"SPECIAL/GENERAL USE (RETAIL,FOOD,ATHLETIC,STU"},{"code":"FARRAND TENT","number":"T02","name":"FARRAND FIELD TENT","site":"MAIN CAMP","address":"2200 BAKER DR","city":"BOULDER","state":"CO","zip":"80309","category":"STUDY TENT"},{"code":"FRND","number":"336","name":"FARRAND HALL","site":"MAIN CAMP","address":"2200 BAKER DR","city":"BOULDER","state":"CO","zip":"80309","category":"RESIDENTIAL"},{"code":"FISK","number":"414","name":"FISKE PLANETARIUM & SCI CTR","site":"MAIN CAMP","address":"2414 REGENT DR","city":"BOULDER","state":"CO","zip":"80309","category":"CLASSROOM/ADMINISTRATION"},{"code":"FLMG","number":"405","name":"FLEMING BLDG","site":"MAIN CAMP","address":"2445 KITTREDGE LOOP RD","city":"BOULDER","state":"CO","zip":"80309","category":"CLASSROOM/ADMINISTRATION"},{"code":"LAW","number":"","name":"FLEMING LAW BLDG","site":"MAIN CAMP","address":"","city":"","state":"","zip":"","category":"OTHER"},{"code":"STAD","number":"378","name":"FOLSOM STADIUM BLDG","site":"MAIN CAMP","address":"2085 COLORADO AVE","city":"BOULDER","state":"CO","zip":"80309","category":"CLASSROOM/ADMINISTRATION"},{"code":"LS98","number":"","name":"FOUNDATION CTR, LEASED SPACE","site":"OFF CAMPUS","address":"","city":"","state":"","zip":"","category":"OTHER"},{"code":"TB69","number":"","name":"FOUNDATION PHONATHON CTR","site":"OFF CAMPUS","address":"","city":"","state":"","zip":"","category":"OTHER"},{"code":"TB95","number":"","name":"FOUNDATION/GIVING","site":"OFF CAMPUS","address":"","city":"","state":"","zip":"","category":"OTHER"},{"code":"W-FR","number":"","name":"FRANKLIN FIELD","site":"MAIN CAMP","address":"","city":"","state":"","zip":"","category":"OTHER"},{"code":"W-GT","number":"","name":"GAMOW TOWER","site":"MAIN CAMP","address":"","city":"","state":"","zip":"","category":"OTHER"},{"code":"TB81","number":"376","name":"GATEHOUSE/INFO BOOTH","site":"MAIN CAMP","address":"2150 COLORADO AVE","city":"BOULDER","state":"CO","zip":"80309","category":"OTHER"},{"code":"COTT","number":"212","name":"GATES WOODRUFF WOMENS STUDIES","site":"MAIN CAMP","address":"1160 BROADWAY","city":"BOULDER","state":"CO","zip":"80309","category":"HISTORIC BUILDING"},{"code":"GOLD","number":"373E","name":"GOLD BIOSCIENCES BLDG","site":"MAIN CAMP","address":"1945 COLORADO AVE","city":"BOULDER","state":"CO","zip":"80309","category":"RESEARCH/LABORATORY"},{"code":"MCDB","number":"","name":"GOLD BIOSCIENCES BLDG - MCD BIO","site":"MAIN CAMP","address":"","city":"","state":"","zip":"","category":"OTHER"},{"code":"GH-1","number":"244","name":"GREENHOUSE NO 1 AT MACKY","site":"MAIN CAMP","address":"1275 MACKY DR","city":"BOULDER","state":"CO","zip":"80309","category":"CLASSROOM/ADMINISTRATION"},{"code":"GROC","number":"486","name":"GROUNDS & RECYCLING OPS CTR","site":"MAIN CAMP","address":"1060 REGENT DR","city":"BOULDER","state":"CO","zip":"80309","category":"OTHER"},{"code":"GRNS","number":"","name":"GROUNDS & SERVICE CTR","site":"MAIN CAMP","address":"","city":"","state":"","zip":"","category":"OTHER"},{"code":"GUGG","number":"216","name":"GUGGENHEIM GEOGRAPHY BLDG","site":"MAIN CAMP","address":"1475 CENTRAL CAMPUS MALL","city":"BOULDER","state":"CO","zip":"80309","category":"HISTORIC BUILDING"},{"code":"HALE","number":"235","name":"HALE SCIENCE BLDG","site":"MAIN CAMP","address":"1350 PLEASANT ST","city":"BOULDER","state":"CO","zip":"80309","category":"HISTORIC BUILDING"},{"code":"HLET","number":"330","name":"HALLETT HALL","site":"MAIN CAMP","address":"2250 WILLARD LOOP DR","city":"BOULDER","state":"CO","zip":"80309","category":"RESIDENTIAL"},{"code":"HWMS","number":"","name":"HAZ WASTE MAINT STORAGE","site":"OFF CAMPUS","address":"","city":"","state":"","zip":"","category":"OTHER"},{"code":"HLMS","number":"221","name":"HELLEMS ARTS & SCI BLDG","site":"MAIN CAMP","address":"1550 CENTRAL CAMPUS MALL","city":"BOULDER","state":"CO","zip":"80309","category":"HISTORIC BUILDING"},{"code":"HEND","number":"208","name":"HENDERSON BLDG, CU MUSEUM","site":"MAIN CAMP","address":"1030 BROADWAY","city":"BOULDER","state":"CO","zip":"80309","category":"LIBRARY/MUSEUM/ARCHIVE"},{"code":"HPCF","number":"584","name":"HIGH PERFORMANCE COMPUTING FACILITY","site":"EAST CAMP","address":"1775 EXPOSITION DR","city":"BOULDER","state":"CO","zip":"80303","category":"OTHER"},{"code":"TB23","number":"","name":"HOGAN - E OF MAIN HOGAN","site":"OFF CAMPUS","address":"","city":"","state":"","zip":"","category":"OTHER"},{"code":"TB21","number":"","name":"HOGAN - MAIN HOGAN","site":"OFF CAMPUS","address":"","city":"","state":"","zip":"","category":"OTHER"},{"code":"TB22","number":"","name":"HOGAN - NE OF MAIN HOGAN","site":"OFF CAMPUS","address":"","city":"","state":"","zip":"","category":"OTHER"},{"code":"HFOC","number":"578","name":"HOUSING & DINING SVCS FAC OPS","site":"EAST CAMP","address":"3500 MARINE ST","city":"BOULDER","state":"CO","zip":"80303","category":"CLASSROOM/ADMINISTRATION"},{"code":"HSMC","number":"","name":"HOUSING SYSTEM MAINT CTR","site":"EAST CAMP","address":"","city":"","state":"","zip":"","category":"OTHER"},{"code":"HSSC","number":"575","name":"HOUSING SYSTEM SERVICE CTR","site":"EAST CAMP","address":"3381 MARINE ST","city":"BOULDER","state":"CO","zip":"80303","category":"OTHER"},{"code":"HUNT","number":"","name":"HUNTER SCIENCE BLDG","site":"MAIN CAMP","address":"","city":"","state":"","zip":"","category":"OTHER"},{"code":"TB91","number":"","name":"IEC LIBRARY BLDG","site":"OFF CAMPUS","address":"","city":"","state":"","zip":"","category":"OTHER"},{"code":"TB86","number":"","name":"IEC OFFICE ANNEX","site":"GRANDVIEW","address":"","city":"","state":"","zip":"","category":"OTHER"},{"code":"MUS","number":"334","name":"IMIG MUSIC BLDG","site":"MAIN CAMP","address":"1020 18TH ST","city":"BOULDER","state":"CO","zip":"80309","category":"CLASSROOM/ADMINISTRATION"},{"code":"IPRC","number":"379","name":"INDOOR PRACTICE FACILITY","site":"MAIN CAMP","address":"2250 STADIUM DR","city":"BOULDER","state":"CO","zip":"80309","category":"SPECIAL/GENERAL USE (RETAIL,FOOD,ATHLETIC,STU"},{"code":"IBG","number":"560","name":"INST FOR BEHAVIORAL GENETICS","site":"EAST CAMP","address":"1480 30TH ST","city":"BOULDER","state":"CO","zip":"80303","category":"CLASSROOM/ADMINISTRATION"},{"code":"IBS","number":"264","name":"INST OF BEHAVIORAL SCI","site":"GRANDVIEW","address":"1440 15TH ST","city":"BOULDER","state":"CO","zip":"80309","category":"CLASSROOM/ADMINISTRATION"},{"code":"IB10","number":"","name":"INST OF BEHAVIORAL SCI #10","site":"OFF CAMPUS","address":"","city":"","state":"","zip":"","category":"OTHER"},{"code":"IBS2","number":"296","name":"INST OF BEHAVIORAL SCI #2","site":"GRANDVIEW","address":"1546 BROADWAY","city":"BOULDER","state":"CO","zip":"80302","category":"CLASSROOM/ADMINISTRATION"},{"code":"IBS4","number":"","name":"INST OF BEHAVIORAL SCI #4","site":"GRANDVIEW","address":"","city":"","state":"","zip":"","category":"OTHER"},{"code":"IBS6","number":"","name":"INST OF BEHAVIORAL SCI #6","site":"GRANDVIEW","address":"","city":"","state":"","zip":"","category":"OTHER"},{"code":"IBS7","number":"","name":"INST OF BEHAVIORAL SCI #7","site":"GRANDVIEW","address":"","city":"","state":"","zip":"","category":"OTHER"},{"code":"IBS9","number":"","name":"INST OF BEHAVIORAL SCI #9","site":"OFF CAMPUS","address":"","city":"","state":"","zip":"","category":"OTHER"},{"code":"IEC","number":"13","name":"INTERNATIONAL ENGLISH CTR","site":"GRANDVIEW","address":"1030 13TH STREET","city":"BOULDER","state":"CO","zip":"80302","category":"CLASSROOM/ADMINISTRATION"},{"code":"JSCB","number":"","name":"JENNIE CARUTHERS BIOTECH BLDG","site":"MAIN CAMP","address":"","city":"","state":"","zip":"","category":"OTHER"},{"code":"JILA","number":"355","name":"JILA","site":"MAIN CAMP","address":"1900 COLORADO AVE","city":"BOULDER","state":"CO","zip":"80309","category":"RESEARCH/LABORATORY"},{"code":"KTCH","number":"232","name":"KETCHUM ARTS & SCI BLDG","site":"MAIN CAMP","address":"1775 CENTRAL CAMPUS MALL","city":"BOULDER","state":"CO","zip":"80309","category":"CLASSROOM/ADMINISTRATION"},{"code":"KCEN","number":"406","name":"KITTREDGE CENTRAL","site":"MAIN CAMP","address":"2480 KITTREDGE LOOP RD","city":"BOULDER","state":"CO","zip":"80309","category":"RESIDENTIAL"},{"code":"LRVN","number":"","name":"KITTREDGE CENTRAL - LRVN","site":"MAIN CAMP","address":"","city":"","state":"","zip":"","category":"OTHER"},{"code":"KITT","number":"","name":"KITTREDGE COMM, KITT CMPX","site":"MAIN CAMP","address":"","city":"","state":"","zip":"","category":"OTHER"},{"code":"W-KF","number":"","name":"KITTREDGE FIELD","site":"MAIN CAMP","address":"","city":"","state":"","zip":"","category":"OTHER"},{"code":"KITW","number":"407","name":"KITTREDGE WEST HALL","site":"MAIN CAMP","address":"2400 KITTREDGE LOOP RD","city":"BOULDER","state":"CO","zip":"80309","category":"RESIDENTIAL"},{"code":"NIWOT","number":"","name":"KITTREDGE WEST HALL - NIWOT","site":"MAIN CAMP","address":"","city":"","state":"","zip":"","category":"OTHER"},{"code":"KOBL","number":"430","name":"KOELBEL BLDG - LEEDS SCHOOL OF BUSINESS","site":"MAIN CAMP","address":"995 REGENT DR","city":"BOULDER","state":"CO","zip":"80309","category":"CLASSROOM/ADMINISTRATION"},{"code":"ALUM","number":"249","name":"KOENIG ALUMNI CTR","site":"MAIN CAMP","address":"1202 UNIVERSITY AVE","city":"BOULDER","state":"CO","zip":"80309","category":"HISTORIC BUILDING"},{"code":"FPRAC","number":"168","name":"KRUSE-BOEDECKER IND PRACTICE FACILITY","site":"N BLDR CRK","address":"1325 FOLSOM ST","city":"BOULDER","state":"CO","zip":"80309","category":"SPECIAL/GENERAL USE (RETAIL,FOOD,ATHLETIC,STU"},{"code":"SPSC","number":"589","name":"LASP SPACE SCIENCE CTR","site":"EAST CAMP","address":"3665 DISCOVERY DR","city":"BOULDER","state":"CO","zip":"80303","category":"RESEARCH/LABORATORY"},{"code":"LSTR","number":"558","name":"LASP SPACE TECH RES CTR","site":"EAST CAMP","address":"1234 INNOVATION DR","city":"BOULDER","state":"CO","zip":"80303","category":"RESEARCH/LABORATORY"},{"code":"LESS","number":"455","name":"LESSER HOUSE","site":"MAIN CAMP","address":"2501 COLORADO AVE","city":"BOULDER","state":"CO","zip":"80309","category":"CLASSROOM/ADMINISTRATION"},{"code":"LESSER HOUSE TENT","number":"T03","name":"LESSER HOUSE TENT","site":"MAIN CAMP","address":"2501 COLORADO AVE","city":"BOULDER","state":"CO","zip":"80309","category":"STUDY TENT"},{"code":"LIBY","number":"348","name":"LIBBY HALL","site":"MAIN CAMP","address":"2115 BAKER DR","city":"BOULDER","state":"CO","zip":"80309","category":"RESIDENTIAL"},{"code":"LSRL","number":"562","name":"LIFE SCI RES LAB, RL-4","site":"EAST CAMP","address":"1520 30TH ST","city":"BOULDER","state":"CO","zip":"80303","category":"RESEARCH/LABORATORY"},{"code":"MCKY","number":"243","name":"MACKY AUDITORIUM","site":"MAIN CAMP","address":"1595 PLEASANT ST","city":"BOULDER","state":"CO","zip":"80309","category":"HISTORIC BUILDING"},{"code":"MCPDC","number":"450","name":"MAIN CAMPUS POWER DIST","site":"MAIN CAMP","address":"1111 ENGINEERING DR","city":"BOULDER","state":"CO","zip":"80309","category":"OTHER"},{"code":"MRCT","number":"","name":"MARINE COURT","site":"OFF CAMPUS","address":"","city":"","state":"","zip":"","category":"OTHER"},{"code":"MSSC","number":"573","name":"MARINE STREET SCI CTR, RL-6","site":"EAST CAMP","address":"3215 MARINE ST","city":"BOULDER","state":"CO","zip":"80303","category":"CLASSROOM/ADMINISTRATION"},{"code":"MARR","number":"","name":"MARR ALPINE LABORATORY","site":"OFF CAMPUS","address":"","city":"","state":"","zip":"","category":"OTHER"},{"code":"W-MR","number":"","name":"MARY RIPPON THEATRE","site":"MAIN CAMP","address":"","city":"","state":"","zip":"","category":"OTHER"},{"code":"MATH","number":"369","name":"MATHEMATICS BLDG","site":"MAIN CAMP","address":"2300 COLORADO AVE","city":"BOULDER","state":"CO","zip":"80309","category":"CLASSROOM/ADMINISTRATION"},{"code":"MKNA","number":"237","name":"MCKENNA LANGUAGES BLDG","site":"MAIN CAMP","address":"1505 PLEASANT ST","city":"BOULDER","state":"CO","zip":"80309","category":"HISTORIC BUILDING"},{"code":"MTRS","number":"","name":"MOUNTAIN RES STATION","site":"OFF CAMPUS","address":"","city":"","state":"","zip":"","category":"OTHER"},{"code":"MRSH","number":"","name":"MOUNTAIN RES STATION HOSTEL","site":"OFF CAMPUS","address":"","city":"","state":"","zip":"","category":"OTHER"},{"code":"MUEN TENT 1","number":"T08","name":"MUENZINGER LOWER CTYRD N TENT 1","site":"MAIN CAMP","address":"1905 COLORADO AVE","city":"BOULDER","state":"CO","zip":"80309","category":"STUDY TENT"},{"code":"MUEN TENT 2","number":"T09","name":"MUENZINGER LOWER CTYRD S TENT 2","site":"MAIN CAMP","address":"1905 COLORADO AVE","city":"BOULDER","state":"CO","zip":"80309","category":"STUDY TENT"},{"code":"MUEN","number":"373S","name":"MUENZINGER PSYCHOLOGY BLDG","site":"MAIN CAMP","address":"1905 COLORADO AVE","city":"BOULDER","state":"CO","zip":"80309","category":"RESEARCH/LABORATORY"},{"code":"NTCT","number":"","name":"NEWTON COURT","site":"OFF CAMPUS","address":"","city":"","state":"","zip":"","category":"OTHER"},{"code":"NIST","number":"","name":"NIST","site":"OFF CAMPUS","address":"","city":"","state":"","zip":"","category":"OTHER"},{"code":"LIBR","number":"245","name":"NORLIN LIBRARY","site":"MAIN CAMP","address":"1157 18TH ST","city":"BOULDER","state":"CO","zip":"80309","category":"HISTORIC BUILDING"},{"code":"GONG","number":"591B","name":"NSO GONG BLDG","site":"EAST CAMP","address":"4001 DISCOVERY DR","city":"BOULDER","state":"CO","zip":"80303","category":"RESEARCH/LABORATORY"},{"code":"NPL","number":"576","name":"NUCLEAR PHYSICS LABORATORY","site":"EAST CAMP","address":"3400 MARINE ST","city":"BOULDER","state":"CO","zip":"80303","category":"RESEARCH/LABORATORY"},{"code":"TB74","number":"","name":"OIL TANKS SOTH OF JILA","site":"OFF CAMPUS","address":"","city":"","state":"","zip":"","category":"OTHER"},{"code":"MAIN","number":"239","name":"OLD MAIN","site":"MAIN CAMP","address":"1540 PLEASANT ST","city":"BOULDER","state":"CO","zip":"80309","category":"HISTORIC BUILDING"},{"code":"OFF","number":"","name":"OTHER/OFF-CAMPUS","site":"OFF CAMPUS","address":"","city":"","state":"","zip":"","category":"OTHER"},{"code":"PFDC","number":"257","name":"PAGE FOUNDATION CTR","site":"GRANDVIEW","address":"1305 UNIVERSITY AVE","city":"BOULDER","state":"CO","zip":"80302","category":"CLASSROOM/ADMINISTRATION"},{"code":"LS14","number":"","name":"PARKING SVC, LEASED SPACE","site":"OFF CAMPUS","address":"","city":"","state":"","zip":"","category":"OTHER"},{"code":"PE","number":"","name":"PEARL EAST","site":"OFF CAMPUS","address":"","city":"","state":"","zip":"","category":"OTHER"},{"code":"PDPS","number":"482","name":"POLICE & PARKING SERVICES CTR","site":"MAIN CAMP","address":"1050 REGENT DR","city":"BOULDER","state":"CO","zip":"80309","category":"OTHER"},{"code":"PORT","number":"373N","name":"PORTER BIOSCIENCES BLDG","site":"MAIN CAMP","address":"1925 COLORADO AVE","city":"BOULDER","state":"CO","zip":"80309","category":"RESEARCH/LABORATORY"},{"code":"POTT","number":"","name":"POTTS FIELD","site":"MAIN CAMP","address":"","city":"","state":"","zip":"","category":"OTHER"},{"code":"TB83","number":"551","name":"POTTS FIELD TRACK STORAGE","site":"EAST CAMP","address":"3625 DISCOVERY DR","city":"BOULDER","state":"CO","zip":"80303","category":"SPECIAL/GENERAL USE (RETAIL,FOOD,ATHLETIC,STU"},{"code":"POWR","number":"","name":"POWER HOUSE","site":"MAIN CAMP","address":"","city":"","state":"","zip":"","category":"OTHER"},{"code":"TB55","number":"166","name":"PRACTICE FOOTBALL FLD BLDG","site":"N BLDR CRK","address":"1301 FOLSOM ST","city":"BOULDER","state":"CO","zip":"80309","category":"SPECIAL/GENERAL USE (RETAIL,FOOD,ATHLETIC,STU"},{"code":"W-PRF","number":"","name":"PRENTUP FIELD","site":"MAIN CAMP","address":"","city":"","state":"","zip":"","category":"OTHER"},{"code":"RAMY","number":"370","name":"RAMALEY BIOLOGY BLDG","site":"MAIN CAMP","address":"1805 COLORADO AVE","city":"BOULDER","state":"CO","zip":"80309","category":"RESEARCH/LABORATORY"},{"code":"REED","number":"332","name":"REED HALL","site":"MAIN CAMP","address":"1001 COCKERELL DR","city":"BOULDER","state":"CO","zip":"80309","category":"RESIDENTIAL"},{"code":"RGNT","number":"309","name":"REGENT ADMINISTRATIVE CTR","site":"MAIN CAMP","address":"2055 REGENT DR","city":"BOULDER","state":"CO","zip":"80309","category":"CLASSROOM/ADMINISTRATION"},{"code":"RPRK","number":"484","name":"REGENT DR AUTOPARK","site":"MAIN CAMP","address":"1050 REGENT DR","city":"BOULDER","state":"CO","zip":"80309","category":"PARKING GARAGE"},{"code":"LITR","number":"566","name":"RESEARCH LAB #1 - LITMAN","site":"EAST CAMP","address":"1560 30TH ST","city":"BOULDER","state":"CO","zip":"80303","category":"RESEARCH/LABORATORY"},{"code":"RL2","number":"564","name":"RESEARCH LAB #2","site":"EAST CAMP","address":"1540 30TH ST","city":"BOULDER","state":"CO","zip":"80303","category":"CLASSROOM/ADMINISTRATION"},{"code":"GH-3","number":"542","name":"RESEARCH PARK GREENHOUSE","site":"EAST CAMP","address":"1380 30TH ST","city":"BOULDER","state":"CO","zip":"80303","category":"CLASSROOM/ADMINISTRATION"},{"code":"SLL","number":"","name":"SCIENCE LEARNING LABORATORY","site":"EAST CAMP","address":"","city":"","state":"","zip":"","category":"OTHER"},{"code":"SEEC","number":"590","name":"SEEC - MCALLISTER BLDG","site":"EAST CAMP","address":"4001 DISCOVERY DR","city":"BOULDER","state":"CO","zip":"80303","category":"CLASSROOM/ADMINISTRATION"},{"code":"SEEL","number":"591","name":"SEEL - SUSTAINABILTY ENERGY & ENV LAB","site":"EAST CAMP","address":"4001 DISCOVERY DR","city":"BOULDER","state":"CO","zip":"80303","category":"RESEARCH/LABORATORY"},{"code":"SEWALL TENT","number":"T10","name":"SEWALL FIELD NORTH END TENT","site":"MAIN CAMP","address":"1720 UNIVERSITY AVE","city":"BOULDER","state":"CO","zip":"80309","category":"STUDY TENT"},{"code":"SWLL","number":"380","name":"SEWALL HALL","site":"MAIN CAMP","address":"1720 UNIVERSITY AVE","city":"BOULDER","state":"CO","zip":"80309","category":"RESIDENTIAL"},{"code":"FA","number":"","name":"SIBELL WOLLE FINE ARTS BLDG","site":"MAIN CAMP","address":"","city":"","state":"","zip":"","category":"OTHER"},{"code":"TB84","number":"549","name":"SKI CTR ATH FIELDHOUSE","site":"EAST CAMP","address":"3601/3603 DISCOVERY DR","city":"BOULDER","state":"CO","zip":"80303","category":"SPECIAL/GENERAL USE (RETAIL,FOOD,ATHLETIC,STU"},{"code":"SKIS","number":"548","name":"SKI CTR STORAGE","site":"EAST CAMP","address":"3597 DISCOVERY DR","city":"BOULDER","state":"CO","zip":"80303","category":"SPECIAL/GENERAL USE (RETAIL,FOOD,ATHLETIC,STU"},{"code":"SMCT","number":"","name":"SMILEY COURT","site":"EAST CAMP","address":"","city":"","state":"","zip":"","category":"OTHER"},{"code":"SMTH","number":"409","name":"SMITH HALL","site":"MAIN CAMP","address":"2525 KITTREDGE LOOP RD","city":"BOULDER","state":"CO","zip":"80309","category":"RESIDENTIAL"},{"code":"SLKR","number":"547","name":"SOCCER LOCKER ROOM","site":"EAST CAMP","address":"3595 DISCOVERY DR","city":"BOULDER","state":"CO","zip":"80303","category":"SPECIAL/GENERAL USE (RETAIL,FOOD,ATHLETIC,STU"},{"code":"OBSV","number":"416","name":"SOMMERS-BAUSCH OBSERVATORY","site":"MAIN CAMP","address":"2475 KITTREDGE LOOP RD","city":"BOULDER","state":"CO","zip":"80309","category":"RESEARCH/LABORATORY"},{"code":"SLHS","number":"418","name":"SPEECH, LANG & HEAR SCI BLDG","site":"MAIN CAMP","address":"2501 KITTREDGE LOOP RD","city":"BOULDER","state":"CO","zip":"80309","category":"CLASSROOM/ADMINISTRATION"},{"code":"STSH","number":"","name":"STADIUM SHOPS","site":"MAIN CAMP","address":"","city":"","state":"","zip":"","category":"OTHER"},{"code":"STSB","number":"378E","name":"STADIUM SKY BOX","site":"MAIN CAMP","address":"2085A COLORADO AVE","city":"BOULDER","state":"CO","zip":"80309","category":"SPECIAL/GENERAL USE (RETAIL,FOOD,ATHLETIC,STU"},{"code":"STTB","number":"377","name":"STADIUM TICKET BLDG","site":"MAIN CAMP","address":"2095 COLORADO AVE","city":"BOULDER","state":"CO","zip":"80309","category":"SPECIAL/GENERAL USE (RETAIL,FOOD,ATHLETIC,STU"},{"code":"STNC","number":"608C","name":"STEARNS TOWERS CTR","site":"WILL VILL","address":"600 30TH ST","city":"BOULDER","state":"CO","zip":"80309","category":"RESIDENTIAL"},{"code":"STNE","number":"608E","name":"STEARNS TOWERS EAST","site":"WILL VILL","address":"600 30TH ST","city":"BOULDER","state":"CO","zip":"80309","category":"RESIDENTIAL"},{"code":"STNW","number":"608W","name":"STEARNS TOWERS WEST","site":"WILL VILL","address":"600 30TH ST","city":"BOULDER","state":"CO","zip":"80309","category":"RESIDENTIAL"},{"code":"STRN","number":"","name":"STEARNS TOWERS, WILL VILL","site":"WILL VILL","address":"","city":"","state":"","zip":"","category":"OTHER"},{"code":"REC","number":"384","name":"STUDENT RECREATION CTR","site":"MAIN CAMP","address":"1855 PLEASANT ST","city":"BOULDER","state":"CO","zip":"80309","category":"SPECIAL/GENERAL USE (RETAIL,FOOD,ATHLETIC,STU"},{"code":"TAAC","number":"","name":"TAAC - LEASED BLDG","site":"OFF CAMPUS","address":"","city":"","state":"","zip":"","category":"OTHER"},{"code":"TLC","number":"","name":"TECH LEARNING CENTER","site":"MAIN CAMP","address":"","city":"","state":"","zip":"","category":"OTHER"},{"code":"TB16","number":"","name":"TELECOM EQUIP BLDG, SMILEY CT","site":"EAST CAMP","address":"","city":"","state":"","zip":"","category":"OTHER"},{"code":"TCOM","number":"","name":"TELECOMMUNICATIONS CTR","site":"MAIN CAMP","address":"","city":"","state":"","zip":"","category":"OTHER"},{"code":"TB01","number":"382A","name":"TEMP BLDG #1 CLARE SMALL","site":"MAIN CAMP","address":"1715 PLEASANT ST","city":"BOULDER","state":"CO","zip":"80309","category":"CLASSROOM/ADMINISTRATION"},{"code":"TB40","number":"221A","name":"TEMP BLDG 40","site":"MAIN CAMP","address":"1550 CENTRAL CAMPUS MALL","city":"BOULDER","state":"CO","zip":"80309","category":"SPECIAL/GENERAL USE (RETAIL,FOOD,ATHLETIC,STU"},{"code":"TB40B","number":"221B","name":"TEMP BLDG 40B","site":"MAIN CAMP","address":"1550 CENTRAL CAMPUS MALL","city":"BOULDER","state":"CO","zip":"80309","category":"SPECIAL/GENERAL USE (RETAIL,FOOD,ATHLETIC,STU"},{"code":"TB64","number":"","name":"TEMP BLDG 64","site":"GRANDVIEW","address":"","city":"","state":"","zip":"","category":"OTHER"},{"code":"TB65","number":"279","name":"TEMP BLDG 65-PUBLICATIONS CTR","site":"GRANDVIEW","address":"1301 GRANDVIEW AVE","city":"BOULDER","state":"CO","zip":"80302","category":"CLASSROOM/ADMINISTRATION"},{"code":"TB66","number":"289","name":"TEMP BLDG 66","site":"GRANDVIEW","address":"1445 GRANDVIEW AVE","city":"BOULDER","state":"CO","zip":"80302","category":"RESIDENTIAL"},{"code":"TB70","number":"282","name":"TEMP BLDG 70","site":"GRANDVIEW","address":"1302 GRANDVIEW AVE","city":"BOULDER","state":"CO","zip":"80302","category":"RESIDENTIAL"},{"code":"TB72","number":"725","name":"TEMP BLDG 72","site":"SOUTH CAMP","address":"5278 TABLE MESA DR","city":"BOULDER","state":"CO","zip":"80305","category":"OTHER"},{"code":"TB78","number":"278","name":"TEMP BLDG 78","site":"GRANDVIEW","address":"1510 13TH ST","city":"BOULDER","state":"CO","zip":"80302","category":"RESIDENTIAL"},{"code":"TB80","number":"","name":"TEMP BLDG 80","site":"GRANDVIEW","address":"","city":"","state":"","zip":"","category":"OTHER"},{"code":"TB82","number":"283","name":"TEMP BLDG 82","site":"GRANDVIEW","address":"1333/1335 GRANDVIEW AVE","city":"BOULDER","state":"CO","zip":"80302","category":"CLASSROOM/ADMINISTRATION"},{"code":"TB88","number":"288","name":"TEMP BLDG 88 - IEC CLRM ANNEX","site":"GRANDVIEW","address":"1338 GRANDVIEW AVE","city":"BOULDER","state":"CO","zip":"80302","category":"CLASSROOM/ADMINISTRATION"},{"code":"TB89","number":"","name":"TEMP BLDG 89","site":"GRANDVIEW","address":"","city":"","state":"","zip":"","category":"OTHER"},{"code":"TB90","number":"281","name":"TEMP BLDG 90","site":"GRANDVIEW","address":"1514 13TH ST","city":"BOULDER","state":"CO","zip":"80302","category":"RESIDENTIAL"},{"code":"TB93","number":"290","name":"TEMP BLDG 93 - IEC CLRM ANNEX","site":"GRANDVIEW","address":"1344 GRANDVIEW AVE","city":"BOULDER","state":"CO","zip":"80302","category":"CLASSROOM/ADMINISTRATION"},{"code":"TB96","number":"","name":"TEMP BLDG 96","site":"GRANDVIEW","address":"","city":"","state":"","zip":"","category":"OTHER"},{"code":"TB97","number":"280","name":"TEMP BLDG 97 - IEC CLRM ANNEX","site":"GRANDVIEW","address":"1320 GRANDVIEW AVE","city":"BOULDER","state":"CO","zip":"80302","category":"CLASSROOM/ADMINISTRATION"},{"code":"TB98","number":"","name":"TEMP BLDG 98","site":"GRANDVIEW","address":"","city":"","state":"","zip":"","category":"OTHER"},{"code":"TB99","number":"287","name":"TEMP BLDG 99","site":"GRANDVIEW","address":"1429 GRANDVIEW AVE","city":"BOULDER","state":"CO","zip":"80302","category":"RESIDENTIAL"},{"code":"TRAN","number":"571","name":"TRANSPORTATION CTR & ANNEX","site":"EAST CAMP","address":"3205 MARINE ST","city":"BOULDER","state":"CO","zip":"80303","category":"OTHER"},{"code":"UMC TENT","number":"T12","name":"UMC NORTH/TRUMBO FOUNTAIN TENT","site":"MAIN CAMP","address":"1669 EUCLID AVE","city":"BOULDER","state":"CO","zip":"80309","category":"STUDY TENT"},{"code":"UCTR","number":"310","name":"UNIVERSITY ADMIN CTR","site":"MAIN CAMP","address":"914 BROADWAY","city":"BOULDER","state":"CO","zip":"80309","category":"CLASSROOM/ADMINISTRATION"},{"code":"TB19","number":"312","name":"UNIVERSITY ADMINISTRATIVE CTR ANNEX","site":"MAIN CAMP","address":"924 BROADWAY","city":"BOULDER","state":"CO","zip":"80309","category":"CLASSROOM/ADMINISTRATION"},{"code":"CLUB","number":"202","name":"UNIVERSITY CLUB","site":"MAIN CAMP","address":"972 BROADWAY","city":"BOULDER","state":"CO","zip":"80309","category":"CLASSROOM/ADMINISTRATION"},{"code":"UMC","number":"205","name":"UNIVERSITY MEMORIAL CTR","site":"MAIN CAMP","address":"1669 EUCLID AVE","city":"BOULDER","state":"CO","zip":"80309","category":"SPECIAL/GENERAL USE (RETAIL,FOOD,ATHLETIC,STU"},{"code":"URES","number":"650","name":"UNIVERSITY RESIDENCE","site":"WILL VILL","address":"3600 CADDO PKWY","city":"BOULDER","state":"CO","zip":"80309","category":"RESIDENTIAL"},{"code":"THTR","number":"218","name":"UNIVERSITY THEATRE","site":"MAIN CAMP","address":"1515 CENTRAL CAMPUS MALL","city":"BOULDER","state":"CO","zip":"80309","category":"HISTORIC BUILDING"},{"code":"LS19","number":"","name":"VCAA, LEASED SPACE","site":"OFF CAMPUS","address":"","city":"","state":"","zip":"","category":"OTHER"},{"code":"VAC","number":"229","name":"VISUAL ARTS COMPLEX","site":"MAIN CAMP","address":"1085 18TH ST","city":"BOULDER","state":"CO","zip":"80309","category":"CLASSROOM/ADMINISTRATION"},{"code":"VAC TENT","number":"T13","name":"VISUAL ARTS CTR PLAZA TENT","site":"MAIN CAMP","address":"1085 18TH ST","city":"BOULDER","state":"CO","zip":"80309","category":"STUDY TENT"},{"code":"WARD","number":"324","name":"WARDENBURG STUDENT HEALTH CTR","site":"MAIN CAMP","address":"1900 WARDENBURG DR","city":"BOULDER","state":"CO","zip":"80309","category":"HOSPITAL/CLINIC"},{"code":"TB45","number":"567","name":"WAREHOUSE NO 1","site":"EAST CAMP","address":"3300 MARINE ST","city":"BOULDER","state":"CO","zip":"80303","category":"OTHER"},{"code":"TB46","number":"565","name":"WAREHOUSE NO 2","site":"EAST CAMP","address":"3300 MARINE ST","city":"BOULDER","state":"CO","zip":"80303","category":"OTHER"},{"code":"TB47","number":"563","name":"WAREHOUSE NO 3","site":"EAST CAMP","address":"3300 MARINE ST","city":"BOULDER","state":"CO","zip":"80303","category":"OTHER"},{"code":"TB48","number":"561","name":"WAREHOUSE NO 4","site":"EAST CAMP","address":"3300 MARINE ST","city":"BOULDER","state":"CO","zip":"80303","category":"OTHER"},{"code":"WDEP","number":"354","name":"WEST DISTRICT ENERGY PLANT","site":"MAIN CAMP","address":"1100 18TH ST","city":"BOULDER","state":"CO","zip":"80309","category":"OTHER"},{"code":"WILD","number":"592","name":"WILDERNESS PLACE","site":"EASTCAMPN","address":"2860 WILDERNESS PL","city":"BOULDER","state":"CO","zip":"80303","category":"RESEARCH/LABORATORY"},{"code":"WVC","number":"604","name":"WILL VILL DINING & COMMUNITY COMMONS","site":"WILL VILL","address":"510 30TH ST","city":"BOULDER","state":"CO","zip":"80309","category":"SPECIAL/GENERAL USE (RETAIL,FOOD,ATHLETIC,STU"},{"code":"WVE","number":"622","name":"WILL VILL EAST","site":"WILL VILL","address":"3400 BASELINE RD","city":"BOULDER","state":"CO","zip":"80303","category":"RESIDENTIAL"},{"code":"WVSTO","number":"615","name":"WILL VILL GROUNDS STORAGE","site":"WILL VILL","address":"3180 BASELINE RD","city":"BOULDER","state":"CO","zip":"80309","category":"OTHER"},{"code":"WVHP","number":"611","name":"WILL VILL HEATING PLANT","site":"WILL VILL","address":"3200 BASELINE RD","city":"BOULDER","state":"CO","zip":"80309","category":"OTHER"},{"code":"WVN","number":"621","name":"WILL VILL NORTH","site":"WILL VILL","address":"3300 BASELINE RD","city":"BOULDER","state":"CO","zip":"80309","category":"RESIDENTIAL"},{"code":"WVRC","number":"607","name":"WILL VILL RECREATION CTR","site":"WILL VILL","address":"3225 APACHE DR","city":"BOULDER","state":"CO","zip":"80309","category":"SPECIAL/GENERAL USE (RETAIL,FOOD,ATHLETIC,STU"},{"code":"WILLVILL TENT","number":"T18","name":"WILL VILL VOLLEYBALL COURTS TENT","site":"WILL VILL","address":"3225 APACHE DR","city":"BOULDER","state":"CO","zip":"80309","category":"STUDY TENT"},{"code":"WCTR","number":"","name":"WILLARD ADMIN CTR:N WING","site":"MAIN CAMP","address":"","city":"","state":"","zip":"","category":"OTHER"},{"code":"WLRD","number":"327","name":"WILLARD HALL","site":"MAIN CAMP","address":"2200 WILLARD LOOP DR","city":"BOULDER","state":"CO","zip":"80309","category":"RESIDENTIAL"},{"code":"WIND","number":"593","name":"WIND TUNNEL","site":"EAST CAMP","address":"4001 DISCOVERY DR","city":"BOULDER","state":"CO","zip":"80303","category":"RESEARCH/LABORATORY"},{"code":"WLAW","number":"403","name":"WOLF LAW BLDG","site":"MAIN CAMP","address":"2450 KITTREDGE LOOP RD","city":"BOULDER","state":"CO","zip":"80309","category":"CLASSROOM/ADMINISTRATION"},{"code":"WOLF TENT 1","number":"T14","name":"WOLF LAW CTYD LARGE TENT","site":"MAIN CAMP","address":"2450 KITTREDGE LOOP RD","city":"BOULDER","state":"CO","zip":"80309","category":"STUDY TENT"},{"code":"WOLF TENT 2","number":"T22","name":"WOLF LAW CTYD SMALL TENT","site":"MAIN CAMP","address":"2450 KITTREDGE LOOP RD","city":"BOULDER","state":"CO","zip":"80309","category":"STUDY TENT"},{"code":"WDBY","number":"241","name":"WOODBURY ARTS & SCI BLDG","site":"MAIN CAMP","address":"1600 PLEASANT ST","city":"BOULDER","state":"CO","zip":"80309","category":"HISTORIC BUILDING"}]